     2.100          NAVIGATION                              RINEX VERSION / TYPE
fic2rin                                 02/11/2014 00:26:03 PGM / RUN BY / DATE
                                                            END OF HEADER
12 14  2 10 21 59 44.0  .185662414879D-03  .238742359215D-11  .000000000000D+00
     .300000000000D+01 -.256875000000D+02  .416338770752D-08  .154946082670D+01
    -.132061541080D-05  .483878771774D-02  .269524753094D-05  .515367965698D+04
     .165584000000D+06 -.447034835815D-07 -.187691913244D+01  .115483999252D-06
     .986397584973D+00  .340437500000D+03  .337110560225D+00 -.817605485122D-08
    -.217151902391D-09  .100000000000D+01  .177900000000D+04  .000000000000D+00
     .240000000000D+01  .000000000000D+00 -.121071934700D-07  .300000000000D+01
     .158406000000D+06  .400000000000D+01
29 14  2 10 21 59 44.0  .510001089424D-03  .295585778076D-11  .000000000000D+00
     .180000000000D+02 -.102468750000D+03  .413981529707D-08  .130249897385D+01
    -.535324215889D-05  .163497508038D-02  .933371484280D-05  .515376200104D+04
     .165584000000D+06  .502914190292D-07 -.815575388217D+00 -.745058059692D-08
     .968508319036D+00  .202593750000D+03 -.994551246663D+00 -.786925635754D-08
    -.792890169915D-10  .100000000000D+01  .177900000000D+04  .000000000000D+00
     .240000000000D+01  .000000000000D+00 -.931322574615D-08  .180000000000D+02
     .158406000000D+06  .400000000000D+01
 1 14  2 10 22  0  0.0 -.153947621584D-05  .216004991671D-11  .000000000000D+00
     .600000000000D+02  .437500000000D+01  .439232581514D-08  .248094299929D+01
     .324100255966D-06  .271343335044D-02  .894069671631D-05  .515368522263D+04
     .165600000000D+06 -.409781932831D-07  .184404181289D+00 -.521540641785D-07
     .961089716627D+00  .205562500000D+03  .378600611012D+00 -.789390024120D-08
     .513235664040D-09  .100000000000D+01  .177900000000D+04  .000000000000D+00
     .240000000000D+01  .000000000000D+00  .838190317154D-08  .600000000000D+02
     .158406000000D+06  .400000000000D+01
 2 14  2 10 22  0  0.0  .477907713503D-03  .216004991671D-11  .000000000000D+00
     .970000000000D+02  .218750000000D+01  .474698344520D-08 -.312424286356D+01
     .113621354103D-06  .131247597747D-01  .938400626183D-05  .515381068802D+04
     .165600000000D+06 -.428408384323D-07  .157121544697D+00 -.143423676491D-06
     .939624958945D+00  .186343750000D+03 -.249436874125D+01 -.788604277105D-08
     .555380276675D-09  .100000000000D+01  .177900000000D+04  .000000000000D+00
     .240000000000D+01  .000000000000D+00 -.200234353542D-07  .970000000000D+02
     .158406000000D+06  .400000000000D+01
 3 14  2 10 22  0  0.0  .324110966176D-03  .511590769747D-11  .000000000000D+00
     .500000000000D+01 -.108875000000D+03  .474019744825D-08 -.290938147395D+01
    -.555999577045D-05  .167500422103D-01  .673905014992D-05  .515377155113D+04
     .165600000000D+06  .184401869774D-06 -.101588703934D+01 -.353902578354D-07
     .937180734436D+00  .235187500000D+03  .136309966333D+01 -.793568769610D-08
    -.127505311108D-09  .100000000000D+01  .177900000000D+04  .000000000000D+00
     .240000000000D+01  .000000000000D+00 -.465661287308D-08  .500000000000D+01
     .158406000000D+06  .400000000000D+01
 4 14  2 10 22  0  0.0  .546220690012D-05  .341060513165D-12  .000000000000D+00
     .500000000000D+02  .581250000000D+01  .494949188049D-08  .278552692483D+00
     .426545739174D-06  .106046375586D-01  .894628465176D-05  .515368968010D+04
     .165600000000D+06 -.199303030968D-06  .173237907528D+00  .143423676491D-06
     .938638328957D+00  .197531250000D+03  .107706542053D+01 -.830820321287D-08
     .446447167745D-09  .100000000000D+01  .177900000000D+04  .000000000000D+00
     .240000000000D+01  .000000000000D+00 -.605359673500D-08  .500000000000D+02
     .158406000000D+06  .400000000000D+01
 5 14  2 10 22  0  0.0 -.389056745917D-03  .159161572810D-11  .000000000000D+00
     .860000000000D+02 -.281250000000D+01  .515592905085D-08 -.873234444943D+00
    -.689178705215D-07  .352356152143D-02  .553391873837D-05  .515378598022D+04
     .165600000000D+06  .447034835815D-07  .122398912861D+01  .000000000000D+00
     .947276171181D+00  .260531250000D+03  .373296890754D+00 -.833570435840D-08
     .210723063176D-10  .100000000000D+01  .177900000000D+04  .000000000000D+00
     .240000000000D+01  .000000000000D+00 -.102445483208D-07  .860000000000D+02
     .158406000000D+06  .400000000000D+01
 6 14  2 10 22  0  0.0  .270729418844D-03  .145519152284D-10  .000000000000D+00
     .420000000000D+02 -.101343750000D+03  .463805033627D-08 -.104516623580D+01
    -.526569783688D-05  .855973677244D-02  .783801078796D-05  .515368696594D+04
     .165600000000D+06 -.651925802231D-07 -.934472681429D+00 -.221654772758D-06
     .943728021374D+00  .221187500000D+03 -.176986248896D+00 -.813819613139D-08
    -.850035407387D-10  .100000000000D+01  .177900000000D+04  .000000000000D+00
     .240000000000D+01  .000000000000D+00 -.512227416039D-08  .420000000000D+02
     .158406000000D+06  .400000000000D+01
 7 14  2 10 22  0  0.0  .312494579703D-03  .420641299570D-11  .000000000000D+00
     .660000000000D+02  .903125000000D+02  .424910556373D-08  .188708100907D+01
     .479631125927D-05  .702427525539D-02  .715255737305D-05  .515365601730D+04
     .165600000000D+06 -.115483999252D-06 -.293845605938D+01  .184401869774D-06
     .974462828643D+00  .251312500000D+03 -.283398933974D+01 -.800319050787D-08
     .967897459671D-10  .100000000000D+01  .177900000000D+04  .000000000000D+00
     .240000000000D+01  .000000000000D+00 -.107102096081D-07  .660000000000D+02
     .158406000000D+06  .400000000000D+01
 8 14  2 10 22  0  0.0  .118580646813D-04  .227373675443D-12  .000000000000D+00
     .780000000000D+02  .899687500000D+02  .377480009272D-08  .130570519582D+01
     .495091080666D-05  .134650758700D-01  .669248402119D-05  .515364651489D+04
     .165600000000D+06  .372529029846D-08 -.284146722252D+01  .201165676117D-06
     .997556184265D+00  .270187500000D+03 -.279207569517D+01 -.787211361942D-08
    -.257153568621D-10  .100000000000D+01  .177900000000D+04  .000000000000D+00
     .340000000000D+01  .000000000000D+00 -.419095158577D-08  .780000000000D+02
     .158406000000D+06  .400000000000D+01
 9 14  2 10 22  0  0.0  .304571818560D-03  .272848410532D-11  .000000000000D+00
     .820000000000D+02  .988125000000D+02  .399695220339D-08  .301675262141D+01
     .526197254658D-05  .169006974902D-01  .689551234245D-05  .515369786072D+04
     .165600000000D+06  .346451997757D-06 -.295967018116D+01  .968575477600D-07
     .983030278174D+00  .254843750000D+03  .176825255932D+01 -.762960351790D-08
     .917895376884D-10  .100000000000D+01  .177900000000D+04  .000000000000D+00
     .240000000000D+01  .000000000000D+00 -.605359673500D-08  .820000000000D+02
     .158406000000D+06  .400000000000D+01
10 14  2 10 22  0  0.0 -.113754533231D-03 -.159161572810D-11  .000000000000D+00
     .350000000000D+02 -.337500000000D+01  .538200989660D-08 -.506158948329D+00
     .465661287308D-07  .134381222306D-01  .556372106075D-05  .515369638062D+04
     .165600000000D+06  .186264514923D-08  .124187683507D+01  .199303030968D-06
     .942072189751D+00  .263718750000D+03  .855750348797D+00 -.862321633443D-08
    -.267868300647D-10  .100000000000D+01  .177900000000D+04  .000000000000D+00
     .240000000000D+01  .000000000000D+00 -.279396772385D-08  .350000000000D+02
     .158406000000D+06  .400000000000D+01
11 14  2 10 22  0  0.0 -.463222153485D-03 -.329691829393D-11  .000000000000D+00
     .540000000000D+02 -.268750000000D+02  .578238371663D-08  .210671304622D+01
    -.149197876453D-05  .147874963004D-01  .959262251854D-05  .515370178032D+04
     .165600000000D+06  .137835741043D-06 -.131603564742D+00 -.353902578354D-06
     .890495402194D+00  .155312500000D+03  .126258521730D+01 -.842213653008D-08
     .412517182996D-09  .100000000000D+01  .177900000000D+04  .000000000000D+00
     .240000000000D+01  .000000000000D+00 -.116415321827D-07  .540000000000D+02
     .158406000000D+06  .400000000000D+01
13 14  2 10 22  0  0.0  .309110619128D-04 -.386535248253D-11  .000000000000D+00
     .630000000000D+02  .276562500000D+02  .408695595241D-08 -.202239948897D+01
     .157952308655D-05  .522799312603D-02  .101458281279D-04  .515363846397D+04
     .165600000000D+06 -.596046447754D-07  .238001797652D+01  .102445483208D-06
     .978631957915D+00  .197625000000D+03  .219138798959D+01 -.765246161289D-08
    -.285369029623D-09  .100000000000D+01  .177900000000D+04  .000000000000D+00
     .240000000000D+01  .000000000000D+00 -.111758708954D-07  .630000000000D+02
     .158406000000D+06  .400000000000D+01
14 14  2 10 22  0  0.0  .199335627258D-03 -.306954461848D-11  .000000000000D+00
     .570000000000D+02  .285937500000D+02  .423089051929D-08 -.172180798828D+01
     .154972076416D-05  .725128350314D-02  .106245279312D-04  .515362137794D+04
     .165600000000D+06  .121071934700D-06  .234891965898D+01  .409781932831D-07
     .971198170416D+00  .178718750000D+03 -.199132104663D+01 -.766853371092D-08
    -.332871008271D-09  .100000000000D+01  .177900000000D+04  .000000000000D+00
     .240000000000D+01  .000000000000D+00 -.884756445885D-08  .570000000000D+02
     .158406000000D+06  .400000000000D+01
15 14  2 10 22  0  0.0 -.162440817803D-03 -.204636307899D-11  .000000000000D+00
     .310000000000D+02  .163437500000D+02  .504342436458D-08 -.228660031726D+01
     .607222318649D-06  .618944060989D-02  .100377947092D-04  .515364676476D+04
     .165600000000D+06 -.372529029846D-08  .224043931972D+01 -.189989805222D-06
     .937691093889D+00  .175375000000D+03  .250701084626D+00 -.815533970263D-08
    -.348943106310D-09  .100000000000D+01  .177900000000D+04  .000000000000D+00
     .240000000000D+01  .000000000000D+00 -.102445483208D-07  .310000000000D+02
     .158406000000D+06  .400000000000D+01
